{
  "norad_id": 36795,
  "name": "CARTOSAT-2B",
  "history": [
    {
      "epoch": "2026-03-27T10:59:25.998720Z",
      "apogee_km": 642.5050255792003,
      "perigee_km": 624.644793003853,
      "latitude_deg": 6.746289887395818e-05,
      "longitude_deg": 147.7510066613129,
      "height_km": 637.3245521828379,
      "semi_major_axis_km": 7011.711909291526,
      "eccentricity": 0.0012736,
      "inclination_deg": 97.9753,
      "raan_deg": 137.5018,
      "arg_perigee_deg": 94.8962,
      "mean_anomaly_deg": 265.3704,
      "mean_motion_rev_day": 14.78654353
    },
    {
      "epoch": "2026-03-30T15:19:26.153760Z",
      "apogee_km": 642.5352729777287,
      "perigee_km": 624.7741241336189,
      "latitude_deg": -1.8941900904142174e-05,
      "longitude_deg": 82.77137246171729,
      "height_km": 636.0043803640968,
      "semi_major_axis_km": 7011.791698555674,
      "eccentricity": 0.00126652,
      "inclination_deg": 97.9849,
      "raan_deg": 140.6577,
      "arg_perigee_deg": 85.8843,
      "mean_anomaly_deg": 274.3815,
      "mean_motion_rev_day": 14.78629114
    },
    {
      "epoch": "2026-03-31T20:33:30.796416Z",
      "apogee_km": 642.6130069839492,
      "perigee_km": 624.8673482228705,
      "latitude_deg": -2.940603195540522e-05,
      "longitude_deg": 4.261407844601263,
      "height_km": 635.3715203224807,
      "semi_major_axis_km": 7011.877177603409,
      "eccentricity": 0.0012654,
      "inclination_deg": 97.9951,
      "raan_deg": 141.8677,
      "arg_perigee_deg": 81.2117,
      "mean_anomaly_deg": 279.0526,
      "mean_motion_rev_day": 14.78602076
    },
    {
      "epoch": "2026-04-01T14:25:27.249312Z",
      "apogee_km": 643.0663178867453,
      "perigee_km": 624.5715828720258,
      "latitude_deg": 2.62953845747287e-05,
      "longitude_deg": 96.280963139115,
      "height_km": 634.3704900559251,
      "semi_major_axis_km": 7011.955950379385,
      "eccentricity": 0.0013188,
      "inclination_deg": 98.0055,
      "raan_deg": 142.6062,
      "arg_perigee_deg": 74.7385,
      "mean_anomaly_deg": 285.5283,
      "mean_motion_rev_day": 14.7857716
    },
    {
      "epoch": "2026-04-02T19:39:33.042816Z",
      "apogee_km": 642.6954724120415,
      "perigee_km": 624.9468039726498,
      "latitude_deg": 4.1676714087370986e-05,
      "longitude_deg": 17.76838602100776,
      "height_km": 634.5311339220272,
      "semi_major_axis_km": 7011.958138192345,
      "eccentricity": 0.0012656,
      "inclination_deg": 98.0042,
      "raan_deg": 143.8184,
      "arg_perigee_deg": 75.1304,
      "mean_anomaly_deg": 285.1308,
      "mean_motion_rev_day": 14.78576468
    },
    {
      "epoch": "2026-04-02T22:54:27.014112Z",
      "apogee_km": 642.6755523359734,
      "perigee_km": 624.962930153215,
      "latitude_deg": -3.464014887908077e-05,
      "longitude_deg": -30.955287593487,
      "height_km": 634.5024565072255,
      "semi_major_axis_km": 7011.956241244594,
      "eccentricity": 0.00126303,
      "inclination_deg": 98.0043,
      "raan_deg": 143.953,
      "arg_perigee_deg": 74.9192,
      "mean_anomaly_deg": 285.3415,
      "mean_motion_rev_day": 14.78577068
    },
    {
      "epoch": "2026-04-03T20:01:17.743296Z",
      "apogee_km": 642.6388328836147,
      "perigee_km": 624.9687420991359,
      "latitude_deg": 2.572464727464092e-05,
      "longitude_deg": 12.341307410007822,
      "height_km": 634.1153650001941,
      "semi_major_axis_km": 7011.940787491375,
      "eccentricity": 0.00126,
      "inclination_deg": 98.0038,
      "raan_deg": 144.8281,
      "arg_perigee_deg": 72.3663,
      "mean_anomaly_deg": 287.8923,
      "mean_motion_rev_day": 14.78581956
    },
    {
      "epoch": "2026-04-04T07:23:26.492064Z",
      "apogee_km": 642.6403777847945,
      "perigee_km": 624.9470327975196,
      "latitude_deg": -1.8926601480163722e-05,
      "longitude_deg": -158.19075206871977,
      "height_km": 633.8937013880841,
      "semi_major_axis_km": 7011.930705291157,
      "eccentricity": 0.00126166,
      "inclination_deg": 98.0037,
      "raan_deg": 145.2994,
      "arg_perigee_deg": 70.945,
      "mean_anomaly_deg": 289.3126,
      "mean_motion_rev_day": 14.78585145
    },
    {
      "epoch": "2026-04-05T14:14:58.799904Z",
      "apogee_km": 642.6173902845449,
      "perigee_km": 624.9508550160272,
      "latitude_deg": 8.936595610352785e-05,
      "longitude_deg": 98.93588202088199,
      "height_km": 633.3195741294256,
      "semi_major_axis_km": 7011.921122650286,
      "eccentricity": 0.00125975,
      "inclination_deg": 98.0032,
      "raan_deg": 146.578,
      "arg_perigee_deg": 66.9842,
      "mean_anomaly_deg": 293.2697,
      "mean_motion_rev_day": 14.78588176
    }
  ]
}